{
  "links" : {
    "next" : "https://api.nasa.gov/neo/rest/v1/feed?start_date=1998-10-09&end_date=1998-10-09&detailed=true&api_key=t0TVs3DtDT2H8Oy2Zy8m2eVrNsAVKAexjcZXUckd",
    "prev" : "https://api.nasa.gov/neo/rest/v1/feed?start_date=1998-10-07&end_date=1998-10-07&detailed=true&api_key=t0TVs3DtDT2H8Oy2Zy8m2eVrNsAVKAexjcZXUckd",
    "self" : "https://api.nasa.gov/neo/rest/v1/feed?start_date=1998-10-08&end_date=1998-10-08&detailed=true&api_key=t0TVs3DtDT2H8Oy2Zy8m2eVrNsAVKAexjcZXUckd"
  },
  "element_count" : 4,
  "near_earth_objects" : {
    "1998-10-08" : [ {
      "links" : {
        "self" : "https://api.nasa.gov/neo/rest/v1/neo/2022753?api_key=t0TVs3DtDT2H8Oy2Zy8m2eVrNsAVKAexjcZXUckd"
      },
      "neo_reference_id" : "2022753",
      "name" : "22753 (1998 WT)",
      "nasa_jpl_url" : "http://ssd.jpl.nasa.gov/sbdb.cgi?sstr=2022753",
      "absolute_magnitude_h" : 17.7,
      "estimated_diameter" : {
        "kilometers" : {
          "estimated_diameter_min" : 0.7665755735,
          "estimated_diameter_max" : 1.7141150923
        },
        "meters" : {
          "estimated_diameter_min" : 766.5755735311,
          "estimated_diameter_max" : 1714.1150923063
        },
        "miles" : {
          "estimated_diameter_min" : 0.4763278307,
          "estimated_diameter_max" : 1.065101409
        },
        "feet" : {
          "estimated_diameter_min" : 2515.0118046636,
          "estimated_diameter_max" : 5623.7373594423
        }
      },
      "is_potentially_hazardous_asteroid" : true,
      "close_approach_data" : [ {
        "close_approach_date" : "1998-10-08",
        "epoch_date_close_approach" : 907830000000,
        "relative_velocity" : {
          "kilometers_per_second" : "14.955686534",
          "kilometers_per_hour" : "53840.4715224461",
          "miles_per_hour" : "33454.3752079332"
        },
        "miss_distance" : {
          "astronomical" : "0.1311015449",
          "lunar" : "50.998500824",
          "kilometers" : "19612512",
          "miles" : "12186650"
        },
        "orbiting_body" : "Earth"
      } ],
      "orbital_data" : {
        "orbit_id" : "192",
        "orbit_determination_date" : "2017-04-06 09:29:33",
        "orbit_uncertainty" : "0",
        "minimum_orbit_intersection" : ".0336461",
        "jupiter_tisserand_invariant" : "5.063",
        "epoch_osculation" : "2458000.5",
        "eccentricity" : ".5698272881438972",
        "semi_major_axis" : "1.219052311645572",
        "inclination" : "3.203452172386887",
        "ascending_node_longitude" : "307.4273922028655",
        "orbital_period" : "491.622714448464",
        "perihelion_distance" : ".5244030387950266",
        "perihelion_argument" : "324.7309933917979",
        "aphelion_distance" : "1.913701584496117",
        "perihelion_time" : "2457916.835015310704",
        "mean_anomaly" : "61.26526216742578",
        "mean_motion" : ".7322688505226465",
        "equinox" : "J2000"
      }
    }, {
      "links" : {
        "self" : "https://api.nasa.gov/neo/rest/v1/neo/2031345?api_key=t0TVs3DtDT2H8Oy2Zy8m2eVrNsAVKAexjcZXUckd"
      },
      "neo_reference_id" : "2031345",
      "name" : "31345 (1998 PG)",
      "nasa_jpl_url" : "http://ssd.jpl.nasa.gov/sbdb.cgi?sstr=2031345",
      "absolute_magnitude_h" : 17.3,
      "estimated_diameter" : {
        "kilometers" : {
          "estimated_diameter_min" : 0.9216265485,
          "estimated_diameter_max" : 2.0608196123
        },
        "meters" : {
          "estimated_diameter_min" : 921.6265485028,
          "estimated_diameter_max" : 2060.8196123208
        },
        "miles" : {
          "estimated_diameter_min" : 0.5726720101,
          "estimated_diameter_max" : 1.2805335433
        },
        "feet" : {
          "estimated_diameter_min" : 3023.70924539,
          "estimated_diameter_max" : 6761.2194168867
        }
      },
      "is_potentially_hazardous_asteroid" : false,
      "close_approach_data" : [ {
        "close_approach_date" : "1998-10-08",
        "epoch_date_close_approach" : 907830000000,
        "relative_velocity" : {
          "kilometers_per_second" : "3.9195855667",
          "kilometers_per_hour" : "14110.5080401934",
          "miles_per_hour" : "8767.7209541969"
        },
        "miss_distance" : {
          "astronomical" : "0.2495447227",
          "lunar" : "97.0728988647",
          "kilometers" : "37331360",
          "miles" : "23196632"
        },
        "orbiting_body" : "Earth"
      } ],
      "orbital_data" : {
        "orbit_id" : "51",
        "orbit_determination_date" : "2017-04-21 06:21:20",
        "orbit_uncertainty" : "0",
        "minimum_orbit_intersection" : ".235406",
        "jupiter_tisserand_invariant" : "3.719",
        "epoch_osculation" : "2458000.5",
        "eccentricity" : ".3911132933395713",
        "semi_major_axis" : "2.016227106951567",
        "inclination" : "6.501274245380253",
        "ascending_node_longitude" : "222.7353169083155",
        "orbital_period" : "1045.701186471935",
        "perihelion_distance" : "1.227653883031223",
        "perihelion_argument" : "156.1133822108844",
        "aphelion_distance" : "2.80480033087191",
        "perihelion_time" : "2458420.631680822551",
        "mean_anomaly" : "215.3626915099827",
        "mean_motion" : ".3442666075713225",
        "equinox" : "J2000"
      }
    }, {
      "links" : {
        "self" : "https://api.nasa.gov/neo/rest/v1/neo/2301011?api_key=t0TVs3DtDT2H8Oy2Zy8m2eVrNsAVKAexjcZXUckd"
      },
      "neo_reference_id" : "2301011",
      "name" : "301011 (2008 JO)",
      "nasa_jpl_url" : "http://ssd.jpl.nasa.gov/sbdb.cgi?sstr=2301011",
      "absolute_magnitude_h" : 18.4,
      "estimated_diameter" : {
        "kilometers" : {
          "estimated_diameter_min" : 0.5553349116,
          "estimated_diameter_max" : 1.2417666126
        },
        "meters" : {
          "estimated_diameter_min" : 555.334911581,
          "estimated_diameter_max" : 1241.766612574
        },
        "miles" : {
          "estimated_diameter_min" : 0.3450690093,
          "estimated_diameter_max" : 0.7715977618
        },
        "feet" : {
          "estimated_diameter_min" : 1821.9649913114,
          "estimated_diameter_max" : 4074.0375731972
        }
      },
      "is_potentially_hazardous_asteroid" : false,
      "close_approach_data" : [ {
        "close_approach_date" : "1998-10-08",
        "epoch_date_close_approach" : 907830000000,
        "relative_velocity" : {
          "kilometers_per_second" : "22.6606333349",
          "kilometers_per_hour" : "81578.2800056335",
          "miles_per_hour" : "50689.5707068338"
        },
        "miss_distance" : {
          "astronomical" : "0.263899708",
          "lunar" : "102.6569900513",
          "kilometers" : "39478836",
          "miles" : "24531012"
        },
        "orbiting_body" : "Earth"
      } ],
      "orbital_data" : {
        "orbit_id" : "42",
        "orbit_determination_date" : "2017-04-06 09:24:10",
        "orbit_uncertainty" : "1",
        "minimum_orbit_intersection" : ".0859218",
        "jupiter_tisserand_invariant" : "4.348",
        "epoch_osculation" : "2458000.5",
        "eccentricity" : ".5452061012304864",
        "semi_major_axis" : "1.508772827874193",
        "inclination" : "5.366462864625274",
        "ascending_node_longitude" : "276.900325208858",
        "orbital_period" : "676.9151092417807",
        "perihelion_distance" : ".6861806767464085",
        "perihelion_argument" : "194.7515116443254",
        "aphelion_distance" : "2.331364979001977",
        "perihelion_time" : "2457913.572789681102",
        "mean_anomaly" : "46.23001508986221",
        "mean_motion" : ".531824441624947",
        "equinox" : "J2000"
      }
    }, {
      "links" : {
        "self" : "https://api.nasa.gov/neo/rest/v1/neo/3289740?api_key=t0TVs3DtDT2H8Oy2Zy8m2eVrNsAVKAexjcZXUckd"
      },
      "neo_reference_id" : "3289740",
      "name" : "(2005 QX151)",
      "nasa_jpl_url" : "http://ssd.jpl.nasa.gov/sbdb.cgi?sstr=3289740",
      "absolute_magnitude_h" : 20.5,
      "estimated_diameter" : {
        "kilometers" : {
          "estimated_diameter_min" : 0.2111324448,
          "estimated_diameter_max" : 0.4721064988
        },
        "meters" : {
          "estimated_diameter_min" : 211.1324447897,
          "estimated_diameter_max" : 472.1064988055
        },
        "miles" : {
          "estimated_diameter_min" : 0.1311915784,
          "estimated_diameter_max" : 0.2933532873
        },
        "feet" : {
          "estimated_diameter_min" : 692.6917701639,
          "estimated_diameter_max" : 1548.9058855411
        }
      },
      "is_potentially_hazardous_asteroid" : false,
      "close_approach_data" : [ {
        "close_approach_date" : "1998-10-08",
        "epoch_date_close_approach" : 907830000000,
        "relative_velocity" : {
          "kilometers_per_second" : "4.8359497789",
          "kilometers_per_hour" : "17409.4192039353",
          "miles_per_hour" : "10817.5360603564"
        },
        "miss_distance" : {
          "astronomical" : "0.3885218385",
          "lunar" : "151.1349945068",
          "kilometers" : "58122044",
          "miles" : "36115364"
        },
        "orbiting_body" : "Earth"
      } ],
      "orbital_data" : {
        "orbit_id" : "31",
        "orbit_determination_date" : "2017-04-06 09:10:35",
        "orbit_uncertainty" : "0",
        "minimum_orbit_intersection" : ".232945",
        "jupiter_tisserand_invariant" : "3.424",
        "epoch_osculation" : "2458000.5",
        "eccentricity" : ".4724038601376955",
        "semi_major_axis" : "2.298150906541595",
        "inclination" : "7.961460044317684",
        "ascending_node_longitude" : "359.905889874985",
        "orbital_period" : "1272.524759892003",
        "perihelion_distance" : "1.212495547112401",
        "perihelion_argument" : "36.51608842189435",
        "aphelion_distance" : "3.383806265970788",
        "perihelion_time" : "2457487.877670297752",
        "mean_anomaly" : "145.021963037066",
        "mean_motion" : ".2829021574641524",
        "equinox" : "J2000"
      }
    } ]
  }
}